NORAD_CAT_ID,OBJECT_NAME,OBJECT_TYPE,EPOCH,MEAN_MOTION,ECCENTRICITY,INCLINATION,RA_OF_ASC_NODE,ARG_OF_PERICENTER,MEAN_ANOMALY,BSTAR,MEAN_MOTION_DOT,MEAN_MOTION_DDOT,TLE_LINE0,TLE_LINE1,TLE_LINE2,SEMIMAJOR_AXIS,PERIOD,APOGEE,PERIGEE,DECAYED
52300.0,STARLINK-3769,PAYLOAD,2022-12-15 07:49:09,15.08829706,0.0002469,53.217,357.9927,27.5138,332.5985,4.1667e-05,3.75e-06,0.0,0 STARLINK-3769,1 52300U 22041AR  22349.32580431  .00000375  00000-0  41667-4 0  9998,2 52300  53.2170 357.9927 0002469  27.5138 332.5985 15.08829706 37538,6917.9119999999975,95.438,541.485,538.069,0.0
52300.0,STARLINK-3769,PAYLOAD,2022-12-15 10:59:55,15.08830704,0.000248,53.217,357.3978,28.1298,331.9828,4.7968e-05,4.75e-06,0.0,0 STARLINK-3769,1 52300U 22041AR  22349.45828417  .00000475  00000-0  47968-4 0  9992,2 52300  53.2170 357.3978 0002480  28.1298 331.9828 15.08830704 37556,6917.909000000002,95.438,541.489,538.058,0.0
52300.0,STARLINK-3769,PAYLOAD,2022-12-15 17:21:27,15.08838322,0.0002471,53.2173,356.2085,28.9405,331.1723,8.148899999999999e-05,1.009e-05,0.0,0 STARLINK-3769,1 52300U 22041AR  22349.72323912  .00001009  00000-0  81489-4 0  9992,2 52300  53.2173 356.2085 0002471  28.9405 331.1723 15.08838322 37598,6917.886,95.438,541.46,538.0409999999998,0.0
52300.0,STARLINK-3769,PAYLOAD,2022-12-15 23:42:59,15.0884491,0.000238,53.2175,355.0185,27.6717,332.4401,0.00010344,1.359e-05,0.0,0 STARLINK-3769,1 52300U 22041AR  22349.98819360  .00001359  00000-0  10344-3 0  9996,2 52300  53.2175 355.0185 0002380  27.6717 332.4401 15.08844910 37631,6917.865,95.437,541.377,538.0840000000002,0.0
52300.0,STARLINK-3769,PAYLOAD,2022-12-16 09:15:18,15.08844322,0.0002442,53.2171,353.2340000000001,28.4914,331.6211,0.00011124,1.483e-05,0.0,0 STARLINK-3769,1 52300U 22041AR  22350.38563398  .00001483  00000-0  11124-3 0  9994,2 52300  53.2171 353.2340 0002442  28.4914 331.6211 15.08844322 37690,6917.8669999999975,95.437,541.422,538.043,0.0
52300.0,STARLINK-3769,PAYLOAD,2022-12-17 01:09:11,15.08830855,0.0002599,53.2173,350.2604,28.3638,331.7495,2.5042e-05,1.1e-06,0.0,0 STARLINK-3769,1 52300U 22041AR  22351.04804751  .00000110  00000-0  25042-4 0  9990,2 52300  53.2173 350.2604 0002599  28.3638 331.7495 15.08830855 37799,6917.908,95.438,541.571,537.975,0.0
52300.0,STARLINK-3769,PAYLOAD,2022-12-17 07:30:43,15.08839373,0.0002721,53.2167,349.0713,29.5768,330.5377,0.00012601,1.718e-05,0.0,0 STARLINK-3769,1 52300U 22041AR  22351.31300061  .00001718  00000-0  12601-3 0  9996,2 52300  53.2167 349.0713 0002721  29.5768 330.5377 15.08839373 37838,6917.882,95.438,541.63,537.865,0.0
52300.0,STARLINK-3769,PAYLOAD,2022-12-17 17:03:01,15.08844767,0.0002637,53.2168,347.2871,30.6157,329.4989,0.00013467,1.856e-05,0.0,0 STARLINK-3769,1 52300U 22041AR  22351.71043801  .00001856  00000-0  13467-3 0  9990,2 52300  53.2168 347.2871 0002637  30.6157 329.4989 15.08844767 37890,6917.866,95.437,541.555,537.9069999999998,0.0
52300.0,STARLINK-3769,PAYLOAD,2022-12-18 07:21:30,15.08832457,0.0002497,53.2158,344.6117,29.0683,331.0447,-3.9284e-05,-9.13e-06,0.0,0 STARLINK-3769,1 52300U 22041AR  22352.30660518 -.00000913  00000-0 -39284-4 0  9997,2 52300  53.2158 344.6117 0002497  29.0683 331.0447 15.08832457 37984,6917.903,95.438,541.496,538.0409999999998,0.0
52300.0,STARLINK-3769,PAYLOAD,2022-12-18 16:53:49,15.08842079,0.0002482,53.2166,342.8276,30.5966,329.5171,7.2239e-05,8.62e-06,0.0,0 STARLINK-3769,1 52300U 22041AR  22352.70404165  .00000862  00000-0  72239-4 0  9993,2 52300  53.2166 342.8276 0002482  30.5966 329.5171 15.08842079 38049,6917.874,95.437,541.456,538.0219999999998,0.0
52300.0,STARLINK-3769,PAYLOAD,2022-12-19 08:47:40,15.08843956,0.0002404,53.2169,339.8521,33.757,326.3574,9.9976e-05,1.303e-05,0.0,0 STARLINK-3769,1 52300U 22041AR  22353.36644269  .00001303  00000-0  99976-4 0  9995,2 52300  53.2169 339.8521 0002404  33.7570 326.3574 15.08843956 38149,6917.868,95.437,541.396,538.07,0.0
52300.0,STARLINK-3769,PAYLOAD,2022-12-19 16:44:35,15.08857776,0.0002519,53.217,338.366,32.1357,327.9788,0.00019635,2.839e-05,0.0,0 STARLINK-3769,1 52300U 22041AR  22353.69763098  .00002839  00000-0  19635-3 0  9991,2 52300  53.2170 338.3660 0002519  32.1357 327.9788 15.08857776 38196,6917.826,95.436,541.434,537.948,0.0
52300.0,STARLINK-3769,PAYLOAD,2022-12-20 05:27:40,15.08850664,0.0002264,53.2157,335.9872,24.0988,336.011,0.00028892,4.314e-05,0.0,0 STARLINK-3769,1 52300U 22041AR  22354.22755547  .00004314  00000-0  28892-3 0  9996,2 52300  53.2157 335.9872 0002264  24.0988 336.0110 15.08850664 38274,6917.848000000001,95.437,541.279,538.1469999999998,0.0
52300.0,STARLINK-3769,PAYLOAD,2022-12-20 08:38:27,15.08832322,0.00025,53.2159,335.3921,30.2918,329.8218,2.4663e-05,1.04e-06,0.0,0 STARLINK-3769,1 52300U 22041AR  22354.36004535  .00000104  00000-0  24663-4 0  9991,2 52300  53.2159 335.3921 0002500  30.2918 329.8218 15.08832322 38292,6917.904,95.438,541.498,538.039,0.0
52300.0,STARLINK-3769,PAYLOAD,2022-12-21 03:43:05,15.08839579,0.0002441,53.2159,331.8237,32.3441,327.7701,9.6106e-05,1.242e-05,0.0,0 STARLINK-3769,1 52300U 22041AR  22355.15492220  .00001242  00000-0  96106-4 0  9996,2 52300  53.2159 331.8237 0002441  32.3441 327.7701 15.08839579 38410,6917.882,95.438,541.435,538.058,0.0
52300.0,STARLINK-3769,PAYLOAD,2022-12-21 10:04:37,15.08839671,0.0002594,53.2156,330.6343,28.4234,331.69,5.9745e-06,-1.93e-06,0.0,0 STARLINK-3769,1 52300U 22041AR  22355.41988059 -.00000193  00000-0  59745-5 0  9999,2 52300  53.2156 330.6343 0002594  28.4234 331.6900 15.08839671 38459,6917.880999999999,95.438,541.5409999999998,537.952,0.0
52300.0,STARLINK-3769,PAYLOAD,2022-12-22 05:09:15,15.08837082,0.0002565,53.2164,327.0646,33.6401,326.4753,5.9575e-05,6.6e-06,0.0,0 STARLINK-3769,1 52300U 22041AR  22356.21476504  .00000660  00000-0  59575-4 0  9993,2 52300  53.2164 327.0646 0002565  33.6401 326.4753 15.08837082 38571,6917.889,95.438,541.529,537.98,0.0
52300.0,STARLINK-3769,PAYLOAD,2022-12-22 08:20:02,15.08833672,0.0002514,53.2158,326.471,29.3996,330.7137,7.0098e-06,-1.77e-06,0.0,0 STARLINK-3769,1 52300U 22041AR  22356.34724705 -.00000177  00000-0  70098-5 0  9994,2 52300  53.2158 326.4710 0002514  29.3996 330.7137 15.08833672 38591,6917.9,95.438,541.504,538.026,0.0
52300.0,STARLINK-3769,PAYLOAD,2022-12-22 14:41:34,15.08835478,0.0002509,53.2159,325.2816,29.5544,330.5589,7.586e-05,9.19e-06,0.0,0 STARLINK-3769,1 52300U 22041AR  22356.61220771  .00000919  00000-0  75860-4 0  9992,2 52300  53.2159 325.2816 0002509  29.5544 330.5589 15.08835478 38631,6917.894,95.438,541.495,538.024,0.0
52300.0,STARLINK-3769,PAYLOAD,2022-12-23 05:00:03,15.08833936,0.0002518,53.2159,322.6055,31.4991,328.6151,0.00011783,1.587e-05,0.0,0 STARLINK-3769,1 52300U 22041AR  22357.20837180  .00001587  00000-0  11783-3 0  9991,2 52300  53.2159 322.6055 0002518  31.4991 328.6151 15.08833936 38725,6917.899,95.438,541.506,538.0219999999998,0.0
52300.0,STARLINK-3769,PAYLOAD,2022-12-23 08:10:49,15.08835446,0.0002519,53.216,322.0106,31.4037,328.7105,0.00013741,1.899e-05,0.0,0 STARLINK-3769,1 52300U 22041AR  22357.34085178  .00001899  00000-0  13741-3 0  9990,2 52300  53.2160 322.0106 0002519  31.4037 328.7105 15.08835446 38740,6917.894,95.438,541.502,538.0169999999998,0.0
52300.0,STARLINK-3769,PAYLOAD,2022-12-23 20:53:54,15.08835683,0.0002755,53.2161,319.6317,33.9394,326.1773,0.00015637,2.201e-05,0.0,0 STARLINK-3769,1 52300U 22041AR  22357.87077536  .00002201  00000-0  15637-3 0  9991,2 52300  53.2161 319.6317 0002755  33.9394 326.1773 15.08835683 38827,6917.894,95.438,541.664,537.8530000000002,0.0
52300.0,STARLINK-3769,PAYLOAD,2022-12-24 08:01:36,15.08840751,0.0002622,53.2162,317.5501,30.0052,330.1090000000001,0.00013029,1.786e-05,0.0,0 STARLINK-3769,1 52300U 22041AR  22358.33445303  .00001786  00000-0  13029-3 0  9994,2 52300  53.2162 317.5501 0002622  30.0052 330.1090 15.08840751 38898,6917.878000000002,95.438,541.557,537.929,0.0
52300.0,STARLINK-3769,PAYLOAD,2022-12-24 14:23:07,15.08870389,0.0002235,53.2163,316.3607,18.5603,341.5471,0.00057016,8.805e-05,0.0,0 STARLINK-3769,1 52300U 22041AR  22358.59939349  .00008805  00000-0  57016-3 0  9993,2 52300  53.2163 316.3607 0002235  18.5603 341.5471 15.08870389 38930,6917.788000000001,95.436,541.1990000000002,538.106,0.0
52300.0,STARLINK-3769,PAYLOAD,2022-12-24 22:20:04,15.08845416,0.0002313,53.2166,314.8737,26.3351,333.7759,0.00017183,2.448e-05,0.0,0 STARLINK-3769,1 52300U 22041AR  22358.93060541  .00002448  00000-0  17183-3 0  9998,2 52300  53.2166 314.8737 0002313  26.3351 333.7759 15.08845416 38984,6917.864000000001,95.437,541.3290000000002,538.129,0.0
52300.0,STARLINK-3769,PAYLOAD,2022-12-25 01:30:50,15.08842328,0.0002322,53.2164,314.2789,25.1592,334.9513,0.00011339,1.517e-05,0.0,0 STARLINK-3769,1 52300U 22041AR  22359.06308658  .00001517  00000-0  11339-3 0  9990,2 52300  53.2164 314.2789 0002322  25.1592 334.9513 15.08842328 39001,6917.873000000001,95.437,541.345,538.132,0.0
52300.0,STARLINK-3769,PAYLOAD,2022-12-25 06:16:59,15.08844814,0.00024,53.2161,313.3864,24.4704,335.6402,0.00011597,1.558e-05,0.0,0 STARLINK-3769,1 52300U 22041AR  22359.26180482  .00001558  00000-0  11597-3 0  9996,2 52300  53.2161 313.3864 0002400  24.4704 335.6402 15.08844814 39036,6917.866,95.437,541.391,538.07,0.0
52300.0,STARLINK-3769,PAYLOAD,2022-12-25 20:35:28,15.08839871,0.0002505,53.2162,310.7102,26.0188,334.093,7.1967e-07,-2.77e-06,0.0,0 STARLINK-3769,1 52300U 22041AR  22359.85796582 -.00000277  00000-0  71967-6 0  9993,2 52300  53.2162 310.7102 0002505  26.0188 334.0930 15.08839871 39129,6917.880999999999,95.438,541.479,538.013,0.0
52300.0,STARLINK-3769,PAYLOAD,2022-12-26 02:57:00,15.08839507,0.0002546,53.2163,309.5205,24.9068,335.2046,0.00011777,1.586e-05,0.0,0 STARLINK-3769,1 52300U 22041AR  22360.12292793  .00001586  00000-0  11777-3 0  9993,2 52300  53.2163 309.5205 0002546  24.9068 335.2046 15.08839507 39160,6917.882,95.438,541.508,537.986,0.0
